CAS-2T & KS-1Q          
1 41847U 16066G   20298.41111774  .00000146  00000-0  32615-4 0  9992
2 41847  98.6388 350.1280 0365207 204.4189 153.9314 14.38101432207954
NAYIF-1 (EO-88)         
1 42017U 17008BX  20298.14734124  .00002467  00000-0  96184-4 0  9998
2 42017  97.3470   3.7671 0005104 213.5053 146.5863 15.26873016205187
ZHUHAI-1 02 (CAS-4B)    
1 42759U 17034B   20298.48958588  .00000341  00000-0  34070-4 0  9994
2 42759  43.0199  38.0461 0008872 125.2712 336.1844 15.09916651185479
ZHUHAI-1 01 (CAS-4A)    
1 42761U 17034D   20298.49358722  .00000285  00000-0  30631-4 0  9998
2 42761  43.0197  37.2392 0009377 127.2806 335.7936 15.09995435185475
MAX VALIER SAT          
1 42778U 17036P   20298.20748956  .00001597  00000-0  71074-4 0  9992
2 42778  97.2902 348.1920 0010482 292.0228  67.9895 15.22850133185329
RADFXSAT (FOX-1B)       
1 43017U 17073E   20298.27148446  .00001502  00000-0  12151-3 0  9991
2 43017  97.7149 205.4909 0256431 350.9197   8.7422 14.79085408158203
FOX-1D (AO-92)          
1 43137U 18004AC  20298.48379867  .00001804  00000-0  76540-4 0  9993
2 43137  97.4343   8.7055 0008167 331.6384  28.4408 15.24379322154694
DIWATA-2B               
1 43678U 18084H   20298.40456799 -.00000236  00000-0 -17705-4 0  9991
2 43678  97.8991  56.9120 0011167 107.7327 252.5106 14.91658903108241
ES'HAIL 2               
1 43700U 18090A   20298.19475587  .00000129  00000-0  00000-0 0  9991
2 43700   0.0183 241.7068 0001618 338.2141 269.0637  1.00269891  7000
FOX-1CLIFF (AO-95)      
1 43770U 18099N   20298.14800048  .00000862  00000-0  83774-4 0  9993
2 43770  97.6943   7.2099 0015922 124.5522 235.7204 14.95070859103148
ITASAT 1                
1 43786U 18099AE  20298.18311452  .00000030  00000-0  78593-5 0  9991
2 43786  97.6959   7.7561 0016463 118.5433 241.7448 14.95398098103174
JY1SAT (JO-97)          
1 43803U 18099AX  20298.18182158  .00000118  00000-0  15811-4 0  9990
2 43803  97.6920   7.5447 0016385 118.7857 241.5012 14.95591229103174
PSAT2 (NO-104)          
1 44354U 19036R   20298.20485660  .00014583  00000-0  20843-3 0  9992
2 44354  28.5316 253.6175 0354854 248.3834 107.8600 15.05854060 73238
BRICSAT2 (NO-103)       
1 44355U 19036S   20298.19353567  .00032692  00000-0  43784-3 0  9991
2 44355  28.5311 236.8619 0324973 275.6300  80.7325 15.13465444 73393
JAISAT-1                
1 44419U 19038F   20298.46438175  .00001723  00000-0  10079-3 0  9995
2 44419  97.5552 258.6703 0022775  48.9243 311.3950 15.12999617 72103
DUCHIFAT-3              
1 44854U 19089C   20298.44421018  .00000507  00000-0  47288-4 0  9992
2 44854  36.9653  55.9872 0008658  17.0993 343.0050 14.99164071 47661
RS-44 & BREEZE-KM R/B   
1 44909U 19096E   20298.20288683  .00000030  00000-0  83456-4 0  9992
2 44909  82.5182 269.7546 0216313 285.6103  72.1221 12.79708623 38656
ORBITAL FACTORY 2 (OF-2)
1 45113U 19071C   20298.18489293  .00004543  00000-0  14763-3 0  9997
2 45113  51.6423 101.4757 0013146 159.1803 200.9718 15.33867292 40887
HUSKYSAT-1              
1 45119U 19071J   20297.75561047  .00003636  00000-0  11988-3 0  9991
2 45119  51.6419 103.1096 0012521 154.0629 206.0983 15.34036694 40818
SALSAT                  
1 46495U 20068K   20298.30743508  .00000623  00000-0  50449-4 0  9992
2 46495  97.6678 231.5543 0016962 147.0932 213.1352 15.03220007  3859
